STARLINK-4059           
1 53250U 22086J   22230.91667824  .00055316  00000+0  39598-3 0  9991
2 53250  53.2185 277.7351 0002909  15.3467 146.4450 15.73195337  1301
STARLINK-4129           
1 53251U 22086K   22230.91667824  .00059380  00000+0  42480-3 0  9991
2 53251  53.2187 277.7304 0002907  17.1004 147.0947 15.73181262  4625
STARLINK-4132           
1 53252U 22086L   22230.91667824 -.00052798  00000+0 -37328-3 0  9995
2 53252  53.2185 277.7338 0002607  18.9839 143.4197 15.73247482  4627
STARLINK-4133           
1 53253U 22086M   22230.91667824  .00060880  00000+0  43464-3 0  9993
2 53253  53.2174 277.7305 0008514 299.3164 225.4614 15.73178338  4627
STARLINK-4134           
1 53254U 22086N   22230.91667824 -.00012977  00000+0 -88020-4 0  9998
2 53254  53.2186 277.7312 0003192   9.7619 153.8260 15.73230777  4621
STARLINK-4142           
1 53255U 22086P   22230.91667824  .00060137  00000+0  42901-3 0  9995
2 53255  53.2184 277.7262 0008707 300.1697 225.7921 15.73198935  1309
STARLINK-4147           
1 53256U 22086Q   22230.91667824  .00054839  00000+0  39258-3 0  9999
2 53256  53.2190 277.7293 0002969   7.3775 157.9831 15.73197848  1306
STARLINK-4144           
1 53257U 22086R   22230.91667824 -.00046315  00000+0 -32678-3 0  9991
2 53257  53.2188 277.7237 0002489  14.6257 153.1644 15.73238683  4626
STARLINK-4127           
1 53258U 22086S   22230.91667824  .00056335  00000+0  40319-3 0  9994
2 53258  53.2187 277.7260 0002543  11.7337 154.8369 15.73193678  1308
STARLINK-4140           
1 53259U 22086T   22230.91667824  .00058383  00000+0  41747-3 0  9996
2 53259  53.2190 277.7237 0002536  14.4499 153.8851 15.73200454  1304
STARLINK-4136           
1 53260U 22086U   22230.91667824  .00056342  00000+0  40320-3 0  9997
2 53260  53.2184 277.7229 0002533  15.4073 151.7300 15.73196023  1308
STARLINK-4062           
1 53261U 22086V   22230.91667824  .00053775  00000+0  38496-3 0  9996
2 53261  53.2188 277.7198 0003086  12.9085 157.1975 15.73206088  1308
STARLINK-4085           
1 53262U 22086W   22230.91667824 -.00053191  00000+0 -37605-3 0  9992
2 53262  53.2186 277.7200 0002728  10.3551 158.5961 15.73250516  4626
STARLINK-4130           
1 53263U 22086X   22230.91667824 -.00016064  00000+0 -10998-3 0  9997
2 53263  53.2177 277.7191 0002490  20.6564 150.0528 15.73250780  1301
STARLINK-3950           
1 53264U 22086Y   22230.91667824 -.00080426  00000+0 -57298-3 0  9995
2 53264  53.2182 277.7161 0002292  21.7045 147.7872 15.73242079  4626
STARLINK-4097           
1 53265U 22086Z   22230.91667824  .00059867  00000+0  42783-3 0  9992
2 53265  53.2190 277.7167 0002736  11.6950 160.2219 15.73203160  1303
STARLINK-4058           
1 53266U 22086AA  22230.91667824  .00056678  00000+0  40536-3 0  9994
2 53266  53.2188 277.7165 0002764  11.9864 159.3410 15.73207130  1300
STARLINK-4060           
1 53267U 22086AB  22230.91667824 -.00042429  00000+0 -29890-3 0  9996
2 53267  53.2190 277.7124 0002793  12.4619 161.2914 15.73233498  1302
STARLINK-4109           
1 53268U 22086AC  22230.91667824 -.00087988  00000+0 -62700-3 0  9993
2 53268  53.2182 277.7104 0002582  13.6347 158.8929 15.73271617  4620
STARLINK-4057           
1 53269U 22086AD  22230.91667824 -.00050664  00000+0 -35807-3 0  9993
2 53269  53.2190 277.7103 0002207  20.1721 154.7547 15.73239860  4627
STARLINK-4069           
1 53271U 22086AF  22230.91667824  .00059333  00000+0  42452-3 0  9990
2 53271  53.2189 277.7073 0002580  18.4779 157.6261 15.73179560  4626
STARLINK-4122           
1 53272U 22086AG  22230.91667824 -.00014878  00000+0 -10170-3 0  9990
2 53272  53.2189 277.7104 0003030  10.7151 163.6525 15.73206398  1304
STARLINK-4051           
1 53273U 22086AH  22230.91667824  .00056390  00000+0  40399-3 0  9990
2 53273  53.2188 277.7042 0002004  21.0953 156.2462 15.73170934  1304
STARLINK-4050           
1 53274U 22086AJ  22230.91667824 -.00037854  00000+0 -26610-3 0  9997
2 53274  53.2188 277.7075 0002199  16.2577 159.2865 15.73231995  1309
STARLINK-4179           
1 53275U 22086AK  22230.91667824 -.00039401  00000+0 -27709-3 0  9998
2 53275  53.2188 277.7028 0003138   6.9109 171.0135 15.73236639  4629
STARLINK-4174           
1 53276U 22086AL  22230.91667824  .00055280  00000+0  39575-3 0  9994
2 53276  53.2193 277.7079 0002809  15.7611 160.8994 15.73194346  4629
STARLINK-4178           
1 53277U 22086AM  22230.91667824  .00057206  00000+0  40904-3 0  9993
2 53277  53.2184 277.6990 0002173  17.6380 162.0480 15.73210219  1303
STARLINK-4180           
1 53278U 22086AN  22230.91667824  .00037166  00000+0  26784-3 0  9997
2 53278  53.2188 277.7008 0002292  25.3261 153.1443 15.73217904  1303
STARLINK-4169           
1 53280U 22086AQ  22230.91667824 -.00015228  00000+0 -10420-3 0  9997
2 53280  53.2188 277.7005 0002313  18.9589 160.1680 15.73211912  4620
STARLINK-4182           
1 53281U 22086AR  22230.91667824 -.00033674  00000+0 -23585-3 0  9999
2 53281  53.2189 277.6965 0002808  15.3487 166.0936 15.73254086  4621
STARLINK-4164           
1 53282U 22086AS  22230.91667824 -.00048046  00000+0 -33919-3 0  9991
2 53282  53.2190 277.6991 0002194  24.0918 156.1922 15.73242780  1302
STARLINK-4175           
1 53283U 22086AT  22230.91667824 -.00048432  00000+0 -34195-3 0  9998
2 53283  53.2193 277.6971 0002187  16.9800 165.0875 15.73244045  4626
STARLINK-4172           
1 53284U 22086AU  22230.91667824  .00008344  00000+0  63763-4 0  9999
2 53284  53.2188 277.6969 0002369  22.7169 158.1541 15.73218269  1307
STARLINK-4173           
1 53285U 22086AV  22230.91667824  .00046747  00000+0  33564-3 0  9994
2 53285  53.2192 277.6932 0002279  24.1709 159.6676 15.73198463  1307
STARLINK-4165           
1 53286U 22086AW  22230.91667824  .00055202  00000+0  39547-3 0  9998
2 53286  53.2187 277.6931 0002052  27.3848 155.2994 15.73180206  4628
STARLINK-4107           
1 53287U 22086AX  22230.91667824  .00013183  00000+0  98170-4 0  9999
2 53287  53.2174 277.6870 0002507  20.6872 164.3296 15.73208010  1307
STARLINK-4162           
1 53288U 22086AY  22230.91667824 -.00040215  00000+0 -28306-3 0  9991
2 53288  53.2184 277.6906 0002141  19.5216 163.7677 15.73231471  4623
STARLINK-4176           
1 53289U 22086AZ  22230.91667824  .00032776  00000+0  23693-3 0  9997
2 53289  53.2189 277.6872 0002267  23.2273 162.9961 15.73209624  4627
STARLINK-4149           
1 53290U 22086BA  22230.91667824  .00056740  00000+0  40580-3 0  9990
2 53290  53.2187 277.6894 0002297  22.8925 161.5493 15.73208070  1304
STARLINK-4166           
1 53291U 22086BB  22230.91667824 -.00027007  00000+0 -18836-3 0  9996
2 53291  53.2175 277.6864 0002263  25.3862 161.4536 15.73228238  4623
STARLINK-4159           
1 53292U 22086BC  22230.91667824 -.00014558  00000+0 -99313-4 0  9994
2 53292  53.2187 277.6871 0002237  23.5721 162.0574 15.73234822  1307
STARLINK-4148           
1 53293U 22086BD  22230.91667824  .00056502  00000+0  40452-3 0  9997
2 53293  53.2191 277.6859 0002172  22.2349 165.1942 15.73185843  1300
STARLINK-4146           
1 53294U 22086BE  22230.91667824  .00056708  00000+0  40578-3 0  9995
2 53294  53.2187 277.6824 0002195  28.2202 159.7707 15.73196424  1302
2022-087A               
1 53299U 22087A   22230.86814903  .00003690  00000+0  16804-3 0  9994
2 53299  97.4037 304.9306 0014642 199.0488 272.7339 15.21215943  3459
2022-087B               
1 53300U 22087B   22230.86257558  .00003538  00000+0  15956-3 0  9992
2 53300  97.4037 304.9376 0014536 206.4105 265.4301 15.21586376  3459
2022-087C               
1 53301U 22087C   22230.86171836  .00003379  00000+0  15224-3 0  9998
2 53301  97.4031 304.9374 0015322 206.1917 265.6856 15.21640589  3458
2022-087D               
1 53302U 22087D   22230.85774247  .00006619  00000+0  29238-3 0  9993
2 53302  97.4039 304.9453 0014332 212.2513 259.1019 15.21972666  3458
2022-087E               
1 53303U 22087E   22230.85695926  .00003980  00000+0  17694-3 0  9991
2 53303  97.4064 304.9535 0015563 211.4798 261.1308 15.21983499  3451
ZK-1A R/B               
1 53304U 22087F   22230.19844202  .00037345  00000+0  38318-3 0  9990
2 53304  97.2782 304.8058 0173414 231.8006 126.7522 15.48296010  3408
1998-067TQ              
1 53305U 98067TQ  22230.90438591  .00048020  00000+0  79553-3 0  9999
2 53305  51.6424  25.7541 0002989 132.9947 227.1294 15.51673788  4391
1998-067TR              
1 53306U 98067TR  22230.90127234  .00054071  00000+0  88550-3 0  9999
2 53306  51.6425  25.7344 0002446 137.4931 222.6249 15.51946342  4394
1998-067TS              
1 53307U 98067TS  22230.90095836  .00052921  00000+0  86673-3 0  9998
2 53307  51.6421  25.7312 0002472 122.5512 237.5717 15.51953459  4421
RS3S                    
1 53308U 98067TT  22230.90067692  .00052942  00000+0  86708-3 0  9990
2 53308  51.6424  25.7304 0002258 126.6767 233.4430 15.51953311  4452
RS1S                    
1 53309U 98067TU  22230.90003822  .00053124  00000+0  86836-3 0  9991
2 53309  51.6422  25.7251 0002818 145.2735 214.8439 15.52005272  4408
RS5S                    
1 53310U 98067TV  22230.90018367  .00050853  00000+0  83342-3 0  9998
2 53310  51.6426  25.7271 0002555 146.5770 213.5381 15.51951927  4438
RS6S                    
1 53311U 98067TW  22230.89865634  .00057178  00000+0  92920-3 0  9993
2 53311  51.6420  25.7158 0001987 117.4799 242.6393 15.52137982  4459
RS9S                    
1 53312U 98067TX  22230.89908374  .00054189  00000+0  88369-3 0  9994
2 53312  51.6424  25.7188 0003010 148.4390 211.6781 15.52062193  4398
RS12S                   
1 53313U 98067TY  22230.89828617  .00052527  00000+0  85552-3 0  9991
2 53313  51.6424  25.7141 0002530 154.4712 205.6403 15.52111406  4441
YAOGAN-35 03A           
1 53316U 22088A   22230.81359130  .00009795  00000+0  40684-3 0  9991
2 53316  34.9983 357.3045 0006456  86.6663  43.9181 15.23046740  3088
